[{"OBJECT_NAME":"RESURS-P 5","OBJECT_ID":"2024-250A","EPOCH":"2026-03-09T23:31:56.908992","MEAN_MOTION":15.32839945,"ECCENTRICITY":0.00026027,"INCLINATION":97.276,"RA_OF_ASC_NODE":355.9792,"ARG_OF_PERICENTER":63.1234,"MEAN_ANOMALY":297.0274,"EPHEMERIS_TYPE":0,"CLASSIFICATION_TYPE":"U","NORAD_CAT_ID":62430,"ELEMENT_SET_NO":999,"REV_AT_EPOCH":6735,"BSTAR":0.00015600887,"MEAN_MOTION_DOT":4.871e-5,"MEAN_MOTION_DDOT":0},{"OBJECT_NAME":"STARLINK-36330","OBJECT_ID":"2026-026S","EPOCH":"2026-03-09T22:00:01.999584","MEAN_MOTION":15.4909485,"ECCENTRICITY":0.00019244,"INCLINATION":97.2845,"RA_OF_ASC_NODE":123.5221,"ARG_OF_PERICENTER":87.437,"MEAN_ANOMALY":168.7589,"EPHEMERIS_TYPE":0,"CLASSIFICATION_TYPE":"U","NORAD_CAT_ID":67737,"ELEMENT_SET_NO":999,"REV_AT_EPOCH":535,"BSTAR":-0.039487323,"MEAN_MOTION_DOT":-0.01922252,"MEAN_MOTION_DDOT":0}]
